{
  "type": "FeatureCollection",
  "name": "geological-resources-v2",
  "schema_version": "2.0",
  "features": [
    {
      "type": "Feature",
      "properties": {
        "id": "coal_basin-0",
        "resource": "coal_basin",
        "name": "Coal basin",
        "prospect_score": 0.2806,
        "ore_resource_t": 896567396.65,
        "grade": "{\"coal_quality\": 0.6168722594410789}",
        "depth_m": 247.6,
        "accessibility": 0.8667,
        "processing_difficulty": 0.235,
        "recovery": 0.8119,
        "reserve_2025_t": 406099340.17,
        "byproducts": "germanium, coalbed_methane"
      },
      "geometry": {
        "type": "Point",
        "coordinates": [
          41.484375,
          3.6911372184743194
        ]
      }
    },
    {
      "type": "Feature",
      "properties": {
        "id": "petroleum_system-1",
        "resource": "petroleum_system",
        "name": "Oil & gas",
        "prospect_score": 0.303,
        "ore_resource_t": 903587310.46,
        "grade": "{\"boe_per_t\": 0.09778353135313882}",
        "depth_m": 192.9,
        "accessibility": 0.8743,
        "processing_difficulty": 0.46,
        "recovery": 0.7084,
        "reserve_2025_t": 308531457.93,
        "byproducts": "helium, sulfur"
      },
      "geometry": {
        "type": "Point",
        "coordinates": [
          -72.421875,
          -10.0647064336311
        ]
      }
    },
    {
      "type": "Feature",
      "properties": {
        "id": "helium_gas-2",
        "resource": "helium_gas",
        "name": "Helium-bearing gas",
        "prospect_score": 0.2428,
        "ore_resource_t": 14373675.98,
        "grade": "{\"helium_vol_pct\": 0.9451267876161308}",
        "depth_m": 78.3,
        "accessibility": 0.8629,
        "processing_difficulty": 0.834,
        "recovery": 0.5363,
        "reserve_2025_t": 2070395.96,
        "byproducts": "natural_gas"
      },
      "geometry": {
        "type": "Point",
        "coordinates": [
          17.578125000000004,
          -2.0109627750887418
        ]
      }
    },
    {
      "type": "Feature",
      "properties": {
        "id": "helium_gas-3",
        "resource": "helium_gas",
        "name": "Helium-bearing gas",
        "prospect_score": 0.2476,
        "ore_resource_t": 161264047.5,
        "grade": "{\"helium_vol_pct\": 0.6118214964822076}",
        "depth_m": 207.7,
        "accessibility": 0.7203,
        "processing_difficulty": 0.808,
        "recovery": 0.5483,
        "reserve_2025_t": 21495043.62,
        "byproducts": "natural_gas"
      },
      "geometry": {
        "type": "Point",
        "coordinates": [
          26.015625,
          27.643887414276026
        ]
      }
    },
    {
      "type": "Feature",
      "properties": {
        "id": "bif_iron-4",
        "resource": "bif_iron",
        "name": "Banded iron",
        "prospect_score": 0.3321,
        "ore_resource_t": 894280010.97,
        "grade": "{\"fe_pct\": 37.493240861296684}",
        "depth_m": 110.8,
        "accessibility": 0.9158,
        "processing_difficulty": 0.3441,
        "recovery": 0.7617,
        "reserve_2025_t": 393204170.26,
        "byproducts": ""
      },
      "geometry": {
        "type": "Point",
        "coordinates": [
          -80.859375,
          -0.6941971890448209
        ]
      }
    },
    {
      "type": "Feature",
      "properties": {
        "id": "bif_iron-5",
        "resource": "bif_iron",
        "name": "Banded iron",
        "prospect_score": 0.2518,
        "ore_resource_t": 679107885.75,
        "grade": "{\"fe_pct\": 34.559803559897624}",
        "depth_m": 187.5,
        "accessibility": 0.8296,
        "processing_difficulty": 0.4308,
        "recovery": 0.7218,
        "reserve_2025_t": 210197404.82,
        "byproducts": ""
      },
      "geometry": {
        "type": "Point",
        "coordinates": [
          -93.515625,
          -41.43082414518661
        ]
      }
    },
    {
      "type": "Feature",
      "properties": {
        "id": "bif_iron-6",
        "resource": "bif_iron",
        "name": "Banded iron",
        "prospect_score": 0.2678,
        "ore_resource_t": 843352324.89,
        "grade": "{\"fe_pct\": 42.28532000287804}",
        "depth_m": 141.3,
        "accessibility": 0.7256,
        "processing_difficulty": 0.5248,
        "recovery": 0.6786,
        "reserve_2025_t": 211019943.42,
        "byproducts": ""
      },
      "geometry": {
        "type": "Point",
        "coordinates": [
          65.390625,
          14.770134203363467
        ]
      }
    },
    {
      "type": "Feature",
      "properties": {
        "id": "bif_iron-7",
        "resource": "bif_iron",
        "name": "Banded iron",
        "prospect_score": 0.4633,
        "ore_resource_t": 622554523.15,
        "grade": "{\"fe_pct\": 61.33126950992506}",
        "depth_m": 56.1,
        "accessibility": 0.3973,
        "processing_difficulty": 0.4634,
        "recovery": 0.7069,
        "reserve_2025_t": 208519098.36,
        "byproducts": ""
      },
      "geometry": {
        "type": "Point",
        "coordinates": [
          71.015625,
          34.351992192682054
        ]
      }
    },
    {
      "type": "Feature",
      "properties": {
        "id": "bauxite_laterite-8",
        "resource": "bauxite_laterite",
        "name": "Bauxite",
        "prospect_score": 0.6942,
        "ore_resource_t": 170842734.9,
        "grade": "{\"al2o3_pct\": 44.384501607728055}",
        "depth_m": 190.9,
        "accessibility": 0.8,
        "processing_difficulty": 0.6016,
        "recovery": 0.6433,
        "reserve_2025_t": 83141546.3,
        "byproducts": "gallium, scandium"
      },
      "geometry": {
        "type": "Point",
        "coordinates": [
          -73.828125,
          8.784690136192753
        ]
      }
    },
    {
      "type": "Feature",
      "properties": {
        "id": "bauxite_laterite-9",
        "resource": "bauxite_laterite",
        "name": "Bauxite",
        "prospect_score": 0.5918,
        "ore_resource_t": 1011098962.96,
        "grade": "{\"al2o3_pct\": 32.45739507133825}",
        "depth_m": 55.8,
        "accessibility": 0.7041,
        "processing_difficulty": 0.6829,
        "recovery": 0.6058,
        "reserve_2025_t": 373130320.89,
        "byproducts": "gallium, scandium"
      },
      "geometry": {
        "type": "Point",
        "coordinates": [
          38.67187499999999,
          -13.892518104594151
        ]
      }
    },
    {
      "type": "Feature",
      "properties": {
        "id": "bauxite_laterite-10",
        "resource": "bauxite_laterite",
        "name": "Bauxite",
        "prospect_score": 0.6568,
        "ore_resource_t": 253759927.71,
        "grade": "{\"al2o3_pct\": 38.269861110426696}",
        "depth_m": 311.0,
        "accessibility": 0.8343,
        "processing_difficulty": 0.4515,
        "recovery": 0.7123,
        "reserve_2025_t": 142117566.79,
        "byproducts": "gallium, scandium"
      },
      "geometry": {
        "type": "Point",
        "coordinates": [
          -83.67187500000001,
          2.096534019285695
        ]
      }
    },
    {
      "type": "Feature",
      "properties": {
        "id": "bauxite_laterite-11",
        "resource": "bauxite_laterite",
        "name": "Bauxite",
        "prospect_score": 0.6746,
        "ore_resource_t": 223181137.79,
        "grade": "{\"al2o3_pct\": 33.50105319779731}",
        "depth_m": 225.8,
        "accessibility": 0.9015,
        "processing_difficulty": 0.4553,
        "recovery": 0.7106,
        "reserve_2025_t": 128724936.86,
        "byproducts": "gallium, scandium"
      },
      "geometry": {
        "type": "Point",
        "coordinates": [
          4.921875000000003,
          -0.7005325642988416
        ]
      }
    },
    {
      "type": "Feature",
      "properties": {
        "id": "bauxite_laterite-12",
        "resource": "bauxite_laterite",
        "name": "Bauxite",
        "prospect_score": 0.6669,
        "ore_resource_t": 1202916359.82,
        "grade": "{\"al2o3_pct\": 30.905239011543078}",
        "depth_m": 191.8,
        "accessibility": 0.8418,
        "processing_difficulty": 0.5522,
        "recovery": 0.666,
        "reserve_2025_t": 611704355.67,
        "byproducts": "gallium, scandium"
      },
      "geometry": {
        "type": "Point",
        "coordinates": [
          -51.32812500000001,
          -6.0528444949843205
        ]
      }
    },
    {
      "type": "Feature",
      "properties": {
        "id": "bauxite_laterite-13",
        "resource": "bauxite_laterite",
        "name": "Bauxite",
        "prospect_score": 0.7515,
        "ore_resource_t": 577043408.8,
        "grade": "{\"al2o3_pct\": 44.952786092892}",
        "depth_m": 178.8,
        "accessibility": 0.9203,
        "processing_difficulty": 0.6586,
        "recovery": 0.6171,
        "reserve_2025_t": 287248456.59,
        "byproducts": "gallium, scandium"
      },
      "geometry": {
        "type": "Point",
        "coordinates": [
          71.015625,
          1.9947358020268582
        ]
      }
    },
    {
      "type": "Feature",
      "properties": {
        "id": "bauxite_laterite-14",
        "resource": "bauxite_laterite",
        "name": "Bauxite",
        "prospect_score": 0.3645,
        "ore_resource_t": 754314164.31,
        "grade": "{\"al2o3_pct\": 29.37200684410999}",
        "depth_m": 40.8,
        "accessibility": 0.1373,
        "processing_difficulty": 0.686,
        "recovery": 0.6044,
        "reserve_2025_t": 100407816.94,
        "byproducts": "gallium, scandium"
      },
      "geometry": {
        "type": "Point",
        "coordinates": [
          -63.984375,
          12.047390854922355
        ]
      }
    },
    {
      "type": "Feature",
      "properties": {
        "id": "bauxite_laterite-15",
        "resource": "bauxite_laterite",
        "name": "Bauxite",
        "prospect_score": 0.248,
        "ore_resource_t": 209141163.85,
        "grade": "{\"al2o3_pct\": 40.50572127532471}",
        "depth_m": 154.7,
        "accessibility": 0.22,
        "processing_difficulty": 0.6797,
        "recovery": 0.6073,
        "reserve_2025_t": 21274902.96,
        "byproducts": "gallium, scandium"
      },
      "geometry": {
        "type": "Point",
        "coordinates": [
          28.828125000000004,
          15.511340926335455
        ]
      }
    },
    {
      "type": "Feature",
      "properties": {
        "id": "bauxite_laterite-16",
        "resource": "bauxite_laterite",
        "name": "Bauxite",
        "prospect_score": 0.5428,
        "ore_resource_t": 723661149.28,
        "grade": "{\"al2o3_pct\": 44.57254538128119}",
        "depth_m": 99.4,
        "accessibility": 0.7343,
        "processing_difficulty": 0.6466,
        "recovery": 0.6225,
        "reserve_2025_t": 264864480.65,
        "byproducts": "gallium, scandium"
      },
      "geometry": {
        "type": "Point",
        "coordinates": [
          17.578125000000004,
          -14.104306717291257
        ]
      }
    },
    {
      "type": "Feature",
      "properties": {
        "id": "bauxite_laterite-17",
        "resource": "bauxite_laterite",
        "name": "Bauxite",
        "prospect_score": 0.6945,
        "ore_resource_t": 155540818.59,
        "grade": "{\"al2o3_pct\": 91.87999470622856}",
        "depth_m": 68.7,
        "accessibility": 0.4018,
        "processing_difficulty": 0.5334,
        "recovery": 0.6746,
        "reserve_2025_t": 70122371.27,
        "byproducts": "gallium, scandium"
      },
      "geometry": {
        "type": "Point",
        "coordinates": [
          -62.57812500000001,
          0.6241282531006169
        ]
      }
    },
    {
      "type": "Feature",
      "properties": {
        "id": "sedimentary_manganese-18",
        "resource": "sedimentary_manganese",
        "name": "Manganese",
        "prospect_score": 0.3771,
        "ore_resource_t": 41031202.97,
        "grade": "{\"mn_pct\": 43.41427320733841}",
        "depth_m": 362.5,
        "accessibility": 0.0,
        "processing_difficulty": 0.8795,
        "recovery": 0.5154,
        "reserve_2025_t": 3118030.83,
        "byproducts": "cobalt, nickel"
      },
      "geometry": {
        "type": "Point",
        "coordinates": [
          -79.35212633621994,
          -65.01172218691426
        ]
      }
    },
    {
      "type": "Feature",
      "properties": {
        "id": "vanadium_titanomagnetite-19",
        "resource": "vanadium_titanomagnetite",
        "name": "Titanium\u2013vanadium magnetite",
        "prospect_score": 0.5682,
        "ore_resource_t": 716993409.08,
        "grade": "{\"tio2_pct\": 22.522093499552653}",
        "depth_m": 137.9,
        "accessibility": 0.7088,
        "processing_difficulty": 0.8798,
        "recovery": 0.5153,
        "reserve_2025_t": 184892876.03,
        "byproducts": "iron, vanadium, scandium"
      },
      "geometry": {
        "type": "Point",
        "coordinates": [
          75.234375,
          -11.569206563734552
        ]
      }
    },
    {
      "type": "Feature",
      "properties": {
        "id": "layered_chromite_pgm-20",
        "resource": "layered_chromite_pgm",
        "name": "Chromium / PGM",
        "prospect_score": 0.3382,
        "ore_resource_t": 36381773.76,
        "grade": "{\"cr2o3_pct\": 23.95021844383091}",
        "depth_m": 114.7,
        "accessibility": 0.7211,
        "processing_difficulty": 0.7275,
        "recovery": 0.5854,
        "reserve_2025_t": 7415094.41,
        "byproducts": "platinum_group, nickel, cobalt, gold"
      },
      "geometry": {
        "type": "Point",
        "coordinates": [
          -68.203125,
          -13.751491400151552
        ]
      }
    },
    {
      "type": "Feature",
      "properties": {
        "id": "porphyry_cu_mo-21",
        "resource": "porphyry_cu_mo",
        "name": "Porphyry copper",
        "prospect_score": 0.2575,
        "ore_resource_t": 273980941.13,
        "grade": "{\"cu_pct\": 0.754264027505464}",
        "depth_m": 31.2,
        "accessibility": 0.4266,
        "processing_difficulty": 0.6392,
        "recovery": 0.626,
        "reserve_2025_t": 39595904.57,
        "byproducts": "molybdenum, rhenium, gold, silver, tellurium"
      },
      "geometry": {
        "type": "Point",
        "coordinates": [
          -66.796875,
          -37.7171541859072
        ]
      }
    },
    {
      "type": "Feature",
      "properties": {
        "id": "sediment_cu_co-22",
        "resource": "sediment_cu_co",
        "name": "Sediment-hosted copper\u2013cobalt",
        "prospect_score": 0.3098,
        "ore_resource_t": 286436521.38,
        "grade": "{\"cu_pct\": 1.7069605481592205}",
        "depth_m": 139.6,
        "accessibility": 0.8745,
        "processing_difficulty": 0.5111,
        "recovery": 0.6849,
        "reserve_2025_t": 91412185.77,
        "byproducts": "cobalt, silver, germanium"
      },
      "geometry": {
        "type": "Point",
        "coordinates": [
          38.67187499999999,
          0.5489666236092344
        ]
      }
    },
    {
      "type": "Feature",
      "properties": {
        "id": "vms_cu_zn-23",
        "resource": "vms_cu_zn",
        "name": "Volcanogenic Cu\u2013Zn",
        "prospect_score": 0.1992,
        "ore_resource_t": 30943952.17,
        "grade": "{\"combined_base_pct\": 5.286274411081085}",
        "depth_m": 204.4,
        "accessibility": 0.8713,
        "processing_difficulty": 0.89,
        "recovery": 0.5106,
        "reserve_2025_t": 3477253.41,
        "byproducts": "gold, silver, indium, germanium"
      },
      "geometry": {
        "type": "Point",
        "coordinates": [
          -94.92187500000001,
          2.1016039038376735
        ]
      }
    },
    {
      "type": "Feature",
      "properties": {
        "id": "sedex_zn_pb-24",
        "resource": "sedex_zn_pb",
        "name": "Sedimentary Zn\u2013Pb",
        "prospect_score": 0.3671,
        "ore_resource_t": 75946664.24,
        "grade": "{\"zn_pb_pct\": 8.141116642001187}",
        "depth_m": 321.8,
        "accessibility": 0.6515,
        "processing_difficulty": 0.6755,
        "recovery": 0.6093,
        "reserve_2025_t": 17303307.96,
        "byproducts": "silver, germanium, cadmium"
      },
      "geometry": {
        "type": "Point",
        "coordinates": [
          -78.046875,
          -8.94567203404487
        ]
      }
    },
    {
      "type": "Feature",
      "properties": {
        "id": "mvt_zn_pb-25",
        "resource": "mvt_zn_pb",
        "name": "Carbonate Zn\u2013Pb",
        "prospect_score": 0.2932,
        "ore_resource_t": 147586300.64,
        "grade": "{\"zn_pb_pct\": 5.628710341084229}",
        "depth_m": 223.0,
        "accessibility": 0.5914,
        "processing_difficulty": 0.6482,
        "recovery": 0.6218,
        "reserve_2025_t": 27555829.1,
        "byproducts": "germanium, gallium, cadmium"
      },
      "geometry": {
        "type": "Point",
        "coordinates": [
          51.328125,
          33.30221295793515
        ]
      }
    },
    {
      "type": "Feature",
      "properties": {
        "id": "magmatic_ni_cu-26",
        "resource": "magmatic_ni_cu",
        "name": "Magmatic nickel\u2013copper",
        "prospect_score": 0.2048,
        "ore_resource_t": 58967920.49,
        "grade": "{\"ni_pct\": 1.3206866354351967}",
        "depth_m": 212.4,
        "accessibility": 0.5797,
        "processing_difficulty": 0.7661,
        "recovery": 0.5676,
        "reserve_2025_t": 6471827.01,
        "byproducts": "copper, cobalt, platinum_group"
      },
      "geometry": {
        "type": "Point",
        "coordinates": [
          73.828125,
          -12.848638189894652
        ]
      }
    },
    {
      "type": "Feature",
      "properties": {
        "id": "nickel_laterite-27",
        "resource": "nickel_laterite",
        "name": "Nickel laterite",
        "prospect_score": 0.3368,
        "ore_resource_t": 106987461.71,
        "grade": "{\"ni_pct\": 1.183727923984641}",
        "depth_m": 127.4,
        "accessibility": 0.7164,
        "processing_difficulty": 1.0,
        "recovery": 0.46,
        "reserve_2025_t": 12019502.33,
        "byproducts": "cobalt, scandium"
      },
      "geometry": {
        "type": "Point",
        "coordinates": [
          31.640624999999993,
          4.193099559123216
        ]
      }
    },
    {
      "type": "Feature",
      "properties": {
        "id": "granite_sn_w-28",
        "resource": "granite_sn_w",
        "name": "Tin / tungsten granite",
        "prospect_score": 0.3882,
        "ore_resource_t": 99611324.28,
        "grade": "{\"sn_w_pct\": 0.6955817996592453}",
        "depth_m": 79.4,
        "accessibility": 0.4102,
        "processing_difficulty": 0.8061,
        "recovery": 0.5492,
        "reserve_2025_t": 14669294.87,
        "byproducts": "molybdenum, bismuth, lithium"
      },
      "geometry": {
        "type": "Point",
        "coordinates": [
          -59.765625,
          14.06576305248832
        ]
      }
    },
    {
      "type": "Feature",
      "properties": {
        "id": "hydrothermal_gold-29",
        "resource": "hydrothermal_gold",
        "name": "Gold",
        "prospect_score": 0.409,
        "ore_resource_t": 27403081.94,
        "grade": "{\"au_g_t\": 2.5099514247840258}",
        "depth_m": 88.2,
        "accessibility": 0.4116,
        "processing_difficulty": 0.7796,
        "recovery": 0.5614,
        "reserve_2025_t": 4539177.12,
        "byproducts": "silver, copper, tellurium, antimony"
      },
      "geometry": {
        "type": "Point",
        "coordinates": [
          -66.796875,
          4.525489431855929
        ]
      }
    },
    {
      "type": "Feature",
      "properties": {
        "id": "antimony_hydrothermal-30",
        "resource": "antimony_hydrothermal",
        "name": "Antimony",
        "prospect_score": 0.1272,
        "ore_resource_t": 19932591.21,
        "grade": "{\"sb_pct\": 3.018991251230523}",
        "depth_m": 377.8,
        "accessibility": 0.6848,
        "processing_difficulty": 0.8785,
        "recovery": 0.5159,
        "reserve_2025_t": 1466612.74,
        "byproducts": "gold, silver"
      },
      "geometry": {
        "type": "Point",
        "coordinates": [
          49.92187500000001,
          26.46393409964683
        ]
      }
    },
    {
      "type": "Feature",
      "properties": {
        "id": "uranium_system-31",
        "resource": "uranium_system",
        "name": "Uranium",
        "prospect_score": 0.1978,
        "ore_resource_t": 20820960.54,
        "grade": "{\"u3o8_pct\": 0.2483927783139173}",
        "depth_m": 119.7,
        "accessibility": 0.9229,
        "processing_difficulty": 0.6138,
        "recovery": 0.6377,
        "reserve_2025_t": 4401159.33,
        "byproducts": "vanadium, molybdenum, rare_earths"
      },
      "geometry": {
        "type": "Point",
        "coordinates": [
          -0.7031249999999977,
          42.88847363639801
        ]
      }
    },
    {
      "type": "Feature",
      "properties": {
        "id": "carbonatite_ree_nb-32",
        "resource": "carbonatite_ree_nb",
        "name": "Rare earths / niobium",
        "prospect_score": 0.4376,
        "ore_resource_t": 92220980.99,
        "grade": "{\"treo_pct\": 2.066258075463484}",
        "depth_m": 94.2,
        "accessibility": 0.7386,
        "processing_difficulty": 0.934,
        "recovery": 0.4904,
        "reserve_2025_t": 16263544.43,
        "byproducts": "niobium, phosphate, tantalum, uranium, thorium"
      },
      "geometry": {
        "type": "Point",
        "coordinates": [
          110.390625,
          28.64766751361418
        ]
      }
    },
    {
      "type": "Feature",
      "properties": {
        "id": "ionic_clay_hree-33",
        "resource": "ionic_clay_hree",
        "name": "Heavy rare-earth clay",
        "prospect_score": 0.7511,
        "ore_resource_t": 15938268.67,
        "grade": "{\"treo_pct\": 0.08714827572325151}",
        "depth_m": 101.4,
        "accessibility": 0.9527,
        "processing_difficulty": 0.852,
        "recovery": 0.5281,
        "reserve_2025_t": 6353371.82,
        "byproducts": "heavy_rare_earths"
      },
      "geometry": {
        "type": "Point",
        "coordinates": [
          75.234375,
          2.039775840091725
        ]
      }
    },
    {
      "type": "Feature",
      "properties": {
        "id": "ionic_clay_hree-34",
        "resource": "ionic_clay_hree",
        "name": "Heavy rare-earth clay",
        "prospect_score": 0.5495,
        "ore_resource_t": 52034160.02,
        "grade": "{\"treo_pct\": 0.11926585252208403}",
        "depth_m": 119.3,
        "accessibility": 0.7628,
        "processing_difficulty": 0.9482,
        "recovery": 0.4838,
        "reserve_2025_t": 11827579.9,
        "byproducts": "heavy_rare_earths"
      },
      "geometry": {
        "type": "Point",
        "coordinates": [
          118.828125,
          13.002029278052012
        ]
      }
    },
    {
      "type": "Feature",
      "properties": {
        "id": "mineral_sands-35",
        "resource": "mineral_sands",
        "name": "Titanium / zircon mineral sands",
        "prospect_score": 0.2734,
        "ore_resource_t": 502506643.52,
        "grade": "{\"heavy_mineral_pct\": 5.813338462074041}",
        "depth_m": 89.8,
        "accessibility": 0.7043,
        "processing_difficulty": 0.6514,
        "recovery": 0.6204,
        "reserve_2025_t": 98470328.16,
        "byproducts": "titanium, zirconium, hafnium, rare_earths"
      },
      "geometry": {
        "type": "Point",
        "coordinates": [
          -93.515625,
          -28.782557246873115
        ]
      }
    },
    {
      "type": "Feature",
      "properties": {
        "id": "lithium_brine-36",
        "resource": "lithium_brine",
        "name": "Lithium brine",
        "prospect_score": 0.1192,
        "ore_resource_t": 23695425.72,
        "grade": "{\"li_mg_l\": 626.2031064369785}",
        "depth_m": 316.1,
        "accessibility": 0.0291,
        "processing_difficulty": 0.9256,
        "recovery": 0.4942,
        "reserve_2025_t": 653491.27,
        "byproducts": "potassium, boron"
      },
      "geometry": {
        "type": "Point",
        "coordinates": [
          -0.7031249999999976,
          -14.764561747640933
        ]
      }
    },
    {
      "type": "Feature",
      "properties": {
        "id": "lct_pegmatite-37",
        "resource": "lct_pegmatite",
        "name": "Lithium pegmatite",
        "prospect_score": 0.7098,
        "ore_resource_t": 33752840.07,
        "grade": "{\"li2o_pct\": 1.096870786388361}",
        "depth_m": 239.9,
        "accessibility": 0.6154,
        "processing_difficulty": 0.6104,
        "recovery": 0.6392,
        "reserve_2025_t": 15436770.03,
        "byproducts": "tantalum, cesium, beryllium, tin"
      },
      "geometry": {
        "type": "Point",
        "coordinates": [
          42.78464231771201,
          -63.13877913584263
        ]
      }
    },
    {
      "type": "Feature",
      "properties": {
        "id": "metamorphic_graphite-38",
        "resource": "metamorphic_graphite",
        "name": "Natural graphite",
        "prospect_score": 0.1915,
        "ore_resource_t": 25883631.11,
        "grade": "{\"tgc_pct\": 9.357144491174338}",
        "depth_m": 240.4,
        "accessibility": 0.1415,
        "processing_difficulty": 0.8581,
        "recovery": 0.5253,
        "reserve_2025_t": 1284178.29,
        "byproducts": ""
      },
      "geometry": {
        "type": "Point",
        "coordinates": [
          10.125276121712075,
          -70.73725249448091
        ]
      }
    },
    {
      "type": "Feature",
      "properties": {
        "id": "phosphorite-39",
        "resource": "phosphorite",
        "name": "Phosphate",
        "prospect_score": 0.3485,
        "ore_resource_t": 347152689.06,
        "grade": "{\"p2o5_pct\": 24.44283322800398}",
        "depth_m": 188.9,
        "accessibility": 0.0,
        "processing_difficulty": 0.6284,
        "recovery": 0.6309,
        "reserve_2025_t": 42733512.86,
        "byproducts": "uranium, rare_earths, fluorine"
      },
      "geometry": {
        "type": "Point",
        "coordinates": [
          83.67187500000001,
          44.12185554901666
        ]
      }
    },
    {
      "type": "Feature",
      "properties": {
        "id": "potash_evaporite-40",
        "resource": "potash_evaporite",
        "name": "Potash",
        "prospect_score": 0.1223,
        "ore_resource_t": 689144929.52,
        "grade": "{\"k2o_pct\": 23.409032502204912}",
        "depth_m": 848.7,
        "accessibility": 0.694,
        "processing_difficulty": 0.7381,
        "recovery": 0.5805,
        "reserve_2025_t": 70167163.4,
        "byproducts": "magnesium_salts"
      },
      "geometry": {
        "type": "Point",
        "coordinates": [
          24.609375000000007,
          25.253644764867907
        ]
      }
    },
    {
      "type": "Feature",
      "properties": {
        "id": "fluorspar_hydrothermal-41",
        "resource": "fluorspar_hydrothermal",
        "name": "Fluorspar",
        "prospect_score": 0.1182,
        "ore_resource_t": 47585731.49,
        "grade": "{\"caf2_pct\": 43.50788168434368}",
        "depth_m": 124.2,
        "accessibility": 0.9532,
        "processing_difficulty": 0.5847,
        "recovery": 0.651,
        "reserve_2025_t": 8795341.93,
        "byproducts": "barite, lead, zinc, rare_earths"
      },
      "geometry": {
        "type": "Point",
        "coordinates": [
          -78.046875,
          21.36728265998552
        ]
      }
    },
    {
      "type": "Feature",
      "properties": {
        "id": "high_purity_quartz-42",
        "resource": "high_purity_quartz",
        "name": "High-purity quartz",
        "prospect_score": 0.2325,
        "ore_resource_t": 1820551.0,
        "grade": "{\"impurity_ppm\": 49.890633229043694}",
        "depth_m": 96.7,
        "accessibility": 0.5053,
        "processing_difficulty": 1.0,
        "recovery": 0.46,
        "reserve_2025_t": 114523.79,
        "byproducts": ""
      },
      "geometry": {
        "type": "Point",
        "coordinates": [
          37.96002809296093,
          -64.75844539731811
        ]
      }
    }
  ]
}
