{
  "type": "FeatureCollection",
  "name": "geological-resources-v2",
  "schema_version": "2.0",
  "features": [
    {
      "type": "Feature",
      "properties": {
        "id": "coal_basin-0",
        "resource": "coal_basin",
        "name": "Coal basin",
        "prospect_score": 0.4095,
        "ore_resource_t": 994002936.42,
        "grade": "{\"coal_quality\": 0.6331526571011731}",
        "depth_m": 398.3,
        "accessibility": 0.8217,
        "processing_difficulty": 0.2615,
        "recovery": 0.7997,
        "reserve_2025_t": 520081181.58,
        "byproducts": "germanium, coalbed_methane"
      },
      "geometry": {
        "type": "Point",
        "coordinates": [
          37.265625,
          5.04366525545523
        ]
      }
    },
    {
      "type": "Feature",
      "properties": {
        "id": "petroleum_system-1",
        "resource": "petroleum_system",
        "name": "Oil & gas",
        "prospect_score": 0.1551,
        "ore_resource_t": 802728034.77,
        "grade": "{\"boe_per_t\": 0.0949044966089542}",
        "depth_m": 81.0,
        "accessibility": 0.8059,
        "processing_difficulty": 0.4938,
        "recovery": 0.6928,
        "reserve_2025_t": 170006506.05,
        "byproducts": "helium, sulfur"
      },
      "geometry": {
        "type": "Point",
        "coordinates": [
          -55.54687500000001,
          -9.90216600359321
        ]
      }
    },
    {
      "type": "Feature",
      "properties": {
        "id": "helium_gas-2",
        "resource": "helium_gas",
        "name": "Helium-bearing gas",
        "prospect_score": 0.3239,
        "ore_resource_t": 15336099.18,
        "grade": "{\"helium_vol_pct\": 0.9607208246565636}",
        "depth_m": 169.3,
        "accessibility": 0.8179,
        "processing_difficulty": 0.823,
        "recovery": 0.5414,
        "reserve_2025_t": 2716580.97,
        "byproducts": "natural_gas"
      },
      "geometry": {
        "type": "Point",
        "coordinates": [
          33.046875,
          -0.5893855444373464
        ]
      }
    },
    {
      "type": "Feature",
      "properties": {
        "id": "helium_gas-3",
        "resource": "helium_gas",
        "name": "Helium-bearing gas",
        "prospect_score": 0.2098,
        "ore_resource_t": 156467440.92,
        "grade": "{\"helium_vol_pct\": 0.6071745420880135}",
        "depth_m": 182.2,
        "accessibility": 0.9159,
        "processing_difficulty": 0.6721,
        "recovery": 0.6108,
        "reserve_2025_t": 30284816.48,
        "byproducts": "natural_gas"
      },
      "geometry": {
        "type": "Point",
        "coordinates": [
          11.953124999999996,
          33.869556042451535
        ]
      }
    },
    {
      "type": "Feature",
      "properties": {
        "id": "bif_iron-4",
        "resource": "bif_iron",
        "name": "Banded iron",
        "prospect_score": 0.3714,
        "ore_resource_t": 922833199.58,
        "grade": "{\"fe_pct\": 37.79196969899512}",
        "depth_m": 130.3,
        "accessibility": 0.847,
        "processing_difficulty": 0.3292,
        "recovery": 0.7685,
        "reserve_2025_t": 424395570.48,
        "byproducts": ""
      },
      "geometry": {
        "type": "Point",
        "coordinates": [
          -94.92187500000001,
          0.7005325642988416
        ]
      }
    },
    {
      "type": "Feature",
      "properties": {
        "id": "bif_iron-5",
        "resource": "bif_iron",
        "name": "Banded iron",
        "prospect_score": 0.4346,
        "ore_resource_t": 786068723.38,
        "grade": "{\"fe_pct\": 35.860018179784944}",
        "depth_m": 175.4,
        "accessibility": 0.519,
        "processing_difficulty": 0.5185,
        "recovery": 0.6815,
        "reserve_2025_t": 248055312.23,
        "byproducts": ""
      },
      "geometry": {
        "type": "Point",
        "coordinates": [
          -68.203125,
          -39.38673088590684
        ]
      }
    },
    {
      "type": "Feature",
      "properties": {
        "id": "bif_iron-6",
        "resource": "bif_iron",
        "name": "Banded iron",
        "prospect_score": 0.459,
        "ore_resource_t": 982721407.23,
        "grade": "{\"fe_pct\": 43.95021637413849}",
        "depth_m": 177.6,
        "accessibility": 0.4069,
        "processing_difficulty": 0.4808,
        "recovery": 0.6988,
        "reserve_2025_t": 319404731.08,
        "byproducts": ""
      },
      "geometry": {
        "type": "Point",
        "coordinates": [
          83.67187500000001,
          16.078445776712023
        ]
      }
    },
    {
      "type": "Feature",
      "properties": {
        "id": "bif_iron-7",
        "resource": "bif_iron",
        "name": "Banded iron",
        "prospect_score": 0.4633,
        "ore_resource_t": 622571985.59,
        "grade": "{\"fe_pct\": 61.33170388655258}",
        "depth_m": 70.1,
        "accessibility": 0.6384,
        "processing_difficulty": 0.3114,
        "recovery": 0.7768,
        "reserve_2025_t": 301750518.73,
        "byproducts": ""
      },
      "geometry": {
        "type": "Point",
        "coordinates": [
          62.57812500000001,
          34.03347722245971
        ]
      }
    },
    {
      "type": "Feature",
      "properties": {
        "id": "bauxite_laterite-8",
        "resource": "bauxite_laterite",
        "name": "Bauxite",
        "prospect_score": 0.6046,
        "ore_resource_t": 159028503.52,
        "grade": "{\"al2o3_pct\": 43.58862384896176}",
        "depth_m": 221.0,
        "accessibility": 0.7252,
        "processing_difficulty": 0.6219,
        "recovery": 0.6339,
        "reserve_2025_t": 65877448.77,
        "byproducts": "gallium, scandium"
      },
      "geometry": {
        "type": "Point",
        "coordinates": [
          -89.296875,
          10.546098656433736
        ]
      }
    },
    {
      "type": "Feature",
      "properties": {
        "id": "bauxite_laterite-9",
        "resource": "bauxite_laterite",
        "name": "Bauxite",
        "prospect_score": 0.6221,
        "ore_resource_t": 1035864216.15,
        "grade": "{\"al2o3_pct\": 32.65631872647014}",
        "depth_m": 49.9,
        "accessibility": 0.7401,
        "processing_difficulty": 0.7004,
        "recovery": 0.5978,
        "reserve_2025_t": 397481504.58,
        "byproducts": "gallium, scandium"
      },
      "geometry": {
        "type": "Point",
        "coordinates": [
          7.734374999999999,
          -16.032345569286914
        ]
      }
    },
    {
      "type": "Feature",
      "properties": {
        "id": "bauxite_laterite-10",
        "resource": "bauxite_laterite",
        "name": "Bauxite",
        "prospect_score": 0.6345,
        "ore_resource_t": 249274627.39,
        "grade": "{\"al2o3_pct\": 38.09792145715923}",
        "depth_m": 252.1,
        "accessibility": 0.5583,
        "processing_difficulty": 0.4895,
        "recovery": 0.6948,
        "reserve_2025_t": 117959858.81,
        "byproducts": "gallium, scandium"
      },
      "geometry": {
        "type": "Point",
        "coordinates": [
          -73.828125,
          2.025979114457455
        ]
      }
    },
    {
      "type": "Feature",
      "properties": {
        "id": "bauxite_laterite-11",
        "resource": "bauxite_laterite",
        "name": "Bauxite",
        "prospect_score": 0.7472,
        "ore_resource_t": 236526945.73,
        "grade": "{\"al2o3_pct\": 33.99595944289125}",
        "depth_m": 289.8,
        "accessibility": 0.909,
        "processing_difficulty": 0.4532,
        "recovery": 0.7115,
        "reserve_2025_t": 143707655.28,
        "byproducts": "gallium, scandium"
      },
      "geometry": {
        "type": "Point",
        "coordinates": [
          42.89062499999999,
          -0.5151595137663713
        ]
      }
    },
    {
      "type": "Feature",
      "properties": {
        "id": "bauxite_laterite-12",
        "resource": "bauxite_laterite",
        "name": "Bauxite",
        "prospect_score": 0.5685,
        "ore_resource_t": 1111786840.77,
        "grade": "{\"al2o3_pct\": 30.29654442382681}",
        "depth_m": 217.8,
        "accessibility": 0.5709,
        "processing_difficulty": 0.5926,
        "recovery": 0.6474,
        "reserve_2025_t": 418120632.34,
        "byproducts": "gallium, scandium"
      },
      "geometry": {
        "type": "Point",
        "coordinates": [
          -94.92187500000001,
          -4.903814800870226
        ]
      }
    },
    {
      "type": "Feature",
      "properties": {
        "id": "bauxite_laterite-13",
        "resource": "bauxite_laterite",
        "name": "Bauxite",
        "prospect_score": 0.69,
        "ore_resource_t": 549354091.29,
        "grade": "{\"al2o3_pct\": 44.39808036995696}",
        "depth_m": 241.5,
        "accessibility": 0.6136,
        "processing_difficulty": 0.7087,
        "recovery": 0.594,
        "reserve_2025_t": 215379857.9,
        "byproducts": "gallium, scandium"
      },
      "geometry": {
        "type": "Point",
        "coordinates": [
          92.109375,
          3.5132487271198864
        ]
      }
    },
    {
      "type": "Feature",
      "properties": {
        "id": "bauxite_laterite-14",
        "resource": "bauxite_laterite",
        "name": "Bauxite",
        "prospect_score": 0.6442,
        "ore_resource_t": 943411875.6,
        "grade": "{\"al2o3_pct\": 31.078765702922823}",
        "depth_m": 31.1,
        "accessibility": 0.7607,
        "processing_difficulty": 0.6243,
        "recovery": 0.6328,
        "reserve_2025_t": 416695199.25,
        "byproducts": "gallium, scandium"
      },
      "geometry": {
        "type": "Point",
        "coordinates": [
          -68.203125,
          13.751491400151552
        ]
      }
    },
    {
      "type": "Feature",
      "properties": {
        "id": "bauxite_laterite-15",
        "resource": "bauxite_laterite",
        "name": "Bauxite",
        "prospect_score": 0.4265,
        "ore_resource_t": 241250087.66,
        "grade": "{\"al2o3_pct\": 41.99314771996402}",
        "depth_m": 120.7,
        "accessibility": 0.7813,
        "processing_difficulty": 0.5904,
        "recovery": 0.6484,
        "reserve_2025_t": 80447272.39,
        "byproducts": "gallium, scandium"
      },
      "geometry": {
        "type": "Point",
        "coordinates": [
          45.70312500000001,
          -22.64298650250046
        ]
      }
    },
    {
      "type": "Feature",
      "properties": {
        "id": "bauxite_laterite-16",
        "resource": "bauxite_laterite",
        "name": "Bauxite",
        "prospect_score": 0.6528,
        "ore_resource_t": 790197469.55,
        "grade": "{\"al2o3_pct\": 45.57356797528934}",
        "depth_m": 91.2,
        "accessibility": 0.8392,
        "processing_difficulty": 0.608,
        "recovery": 0.6403,
        "reserve_2025_t": 371067722.34,
        "byproducts": "gallium, scandium"
      },
      "geometry": {
        "type": "Point",
        "coordinates": [
          40.07812500000001,
          -11.402175110744663
        ]
      }
    },
    {
      "type": "Feature",
      "properties": {
        "id": "bauxite_laterite-17",
        "resource": "bauxite_laterite",
        "name": "Bauxite",
        "prospect_score": 0.7623,
        "ore_resource_t": 164212670.29,
        "grade": "{\"al2o3_pct\": 93.14733585281539}",
        "depth_m": 73.8,
        "accessibility": 0.9335,
        "processing_difficulty": 0.449,
        "recovery": 0.7135,
        "reserve_2025_t": 101482487.07,
        "byproducts": "gallium, scandium"
      },
      "geometry": {
        "type": "Point",
        "coordinates": [
          -51.32812500000001,
          0.5489666236092344
        ]
      }
    },
    {
      "type": "Feature",
      "properties": {
        "id": "sedimentary_manganese-18",
        "resource": "sedimentary_manganese",
        "name": "Manganese",
        "prospect_score": 0.4028,
        "ore_resource_t": 41885386.43,
        "grade": "{\"mn_pct\": 43.64072679935523}",
        "depth_m": 362.9,
        "accessibility": 0.7275,
        "processing_difficulty": 0.7394,
        "recovery": 0.5799,
        "reserve_2025_t": 9857571.33,
        "byproducts": "cobalt, nickel"
      },
      "geometry": {
        "type": "Point",
        "coordinates": [
          -79.99374914855768,
          -63.63656979593969
        ]
      }
    },
    {
      "type": "Feature",
      "properties": {
        "id": "vanadium_titanomagnetite-19",
        "resource": "vanadium_titanomagnetite",
        "name": "Titanium\u2013vanadium magnetite",
        "prospect_score": 0.6081,
        "ore_resource_t": 740227080.66,
        "grade": "{\"tio2_pct\": 22.70418061983887}",
        "depth_m": 135.8,
        "accessibility": 0.6227,
        "processing_difficulty": 0.9328,
        "recovery": 0.4909,
        "reserve_2025_t": 176713920.53,
        "byproducts": "iron, vanadium, scandium"
      },
      "geometry": {
        "type": "Point",
        "coordinates": [
          75.234375,
          -10.206021605077954
        ]
      }
    },
    {
      "type": "Feature",
      "properties": {
        "id": "layered_chromite_pgm-20",
        "resource": "layered_chromite_pgm",
        "name": "Chromium / PGM",
        "prospect_score": 0.3617,
        "ore_resource_t": 37070236.19,
        "grade": "{\"cr2o3_pct\": 24.063855089451696}",
        "depth_m": 139.5,
        "accessibility": 0.7615,
        "processing_difficulty": 0.7245,
        "recovery": 0.5867,
        "reserve_2025_t": 8359140.31,
        "byproducts": "platinum_group, nickel, cobalt, gold"
      },
      "geometry": {
        "type": "Point",
        "coordinates": [
          -65.390625,
          -12.183884672360263
        ]
      }
    },
    {
      "type": "Feature",
      "properties": {
        "id": "porphyry_cu_mo-21",
        "resource": "porphyry_cu_mo",
        "name": "Porphyry copper",
        "prospect_score": 0.2953,
        "ore_resource_t": 282401647.58,
        "grade": "{\"cu_pct\": 0.7600514312888549}",
        "depth_m": 35.9,
        "accessibility": 0.5432,
        "processing_difficulty": 0.5348,
        "recovery": 0.674,
        "reserve_2025_t": 63122040.18,
        "byproducts": "molybdenum, rhenium, gold, silver, tellurium"
      },
      "geometry": {
        "type": "Point",
        "coordinates": [
          -72.421875,
          -37.3426954895406
        ]
      }
    },
    {
      "type": "Feature",
      "properties": {
        "id": "sediment_cu_co-22",
        "resource": "sediment_cu_co",
        "name": "Sediment-hosted copper\u2013cobalt",
        "prospect_score": 0.3107,
        "ore_resource_t": 286639496.9,
        "grade": "{\"cu_pct\": 1.7072658891747374}",
        "depth_m": 165.3,
        "accessibility": 0.8218,
        "processing_difficulty": 0.5128,
        "recovery": 0.6841,
        "reserve_2025_t": 87806966.76,
        "byproducts": "cobalt, silver, germanium"
      },
      "geometry": {
        "type": "Point",
        "coordinates": [
          33.046875,
          4.128654579471015
        ]
      }
    },
    {
      "type": "Feature",
      "properties": {
        "id": "vms_cu_zn-23",
        "resource": "vms_cu_zn",
        "name": "Volcanogenic Cu\u2013Zn",
        "prospect_score": 0.1448,
        "ore_resource_t": 29624049.15,
        "grade": "{\"combined_base_pct\": 5.228408774920196}",
        "depth_m": 135.5,
        "accessibility": 0.6409,
        "processing_difficulty": 0.9243,
        "recovery": 0.4948,
        "reserve_2025_t": 1961919.17,
        "byproducts": "gold, silver, indium, germanium"
      },
      "geometry": {
        "type": "Point",
        "coordinates": [
          -75.234375,
          -0.6799075481698579
        ]
      }
    },
    {
      "type": "Feature",
      "properties": {
        "id": "sedex_zn_pb-24",
        "resource": "sedex_zn_pb",
        "name": "Sedimentary Zn\u2013Pb",
        "prospect_score": 0.4155,
        "ore_resource_t": 78939620.41,
        "grade": "{\"zn_pb_pct\": 8.220959819388627}",
        "depth_m": 321.8,
        "accessibility": 0.6301,
        "processing_difficulty": 0.6901,
        "recovery": 0.6025,
        "reserve_2025_t": 19336519.26,
        "byproducts": "silver, germanium, cadmium"
      },
      "geometry": {
        "type": "Point",
        "coordinates": [
          -78.046875,
          -8.94567203404487
        ]
      }
    },
    {
      "type": "Feature",
      "properties": {
        "id": "mvt_zn_pb-25",
        "resource": "mvt_zn_pb",
        "name": "Carbonate Zn\u2013Pb",
        "prospect_score": 0.1906,
        "ore_resource_t": 135950580.77,
        "grade": "{\"zn_pb_pct\": 5.513196764724138}",
        "depth_m": 183.9,
        "accessibility": 0.7059,
        "processing_difficulty": 0.6299,
        "recovery": 0.6302,
        "reserve_2025_t": 21991246.59,
        "byproducts": "germanium, gallium, cadmium"
      },
      "geometry": {
        "type": "Point",
        "coordinates": [
          52.73437500000001,
          32.494872089022266
        ]
      }
    },
    {
      "type": "Feature",
      "properties": {
        "id": "magmatic_ni_cu-26",
        "resource": "magmatic_ni_cu",
        "name": "Magmatic nickel\u2013copper",
        "prospect_score": 0.2128,
        "ore_resource_t": 59344872.4,
        "grade": "{\"ni_pct\": 1.3228132868174212}",
        "depth_m": 230.1,
        "accessibility": 0.5807,
        "processing_difficulty": 0.77,
        "recovery": 0.5658,
        "reserve_2025_t": 6631306.71,
        "byproducts": "copper, cobalt, platinum_group"
      },
      "geometry": {
        "type": "Point",
        "coordinates": [
          69.60937499999999,
          -11.22375311156308
        ]
      }
    },
    {
      "type": "Feature",
      "properties": {
        "id": "nickel_laterite-27",
        "resource": "nickel_laterite",
        "name": "Nickel laterite",
        "prospect_score": 0.1519,
        "ore_resource_t": 92275299.02,
        "grade": "{\"ni_pct\": 1.1403270289466922}",
        "depth_m": 76.0,
        "accessibility": 0.8041,
        "processing_difficulty": 1.0,
        "recovery": 0.46,
        "reserve_2025_t": 6302943.23,
        "byproducts": "cobalt, scandium"
      },
      "geometry": {
        "type": "Point",
        "coordinates": [
          23.203124999999996,
          5.81993370497452
        ]
      }
    },
    {
      "type": "Feature",
      "properties": {
        "id": "granite_sn_w-28",
        "resource": "granite_sn_w",
        "name": "Tin / tungsten granite",
        "prospect_score": 0.4049,
        "ore_resource_t": 100951347.99,
        "grade": "{\"sn_w_pct\": 0.6979327384098936}",
        "depth_m": 78.0,
        "accessibility": 0.5307,
        "processing_difficulty": 0.7781,
        "recovery": 0.5621,
        "reserve_2025_t": 18602943.66,
        "byproducts": "molybdenum, bismuth, lithium"
      },
      "geometry": {
        "type": "Point",
        "coordinates": [
          -58.35937500000001,
          13.868328281258382
        ]
      }
    },
    {
      "type": "Feature",
      "properties": {
        "id": "hydrothermal_gold-29",
        "resource": "hydrothermal_gold",
        "name": "Gold",
        "prospect_score": 0.3938,
        "ore_resource_t": 27071898.03,
        "grade": "{\"au_g_t\": 2.5022571501335418}",
        "depth_m": 85.9,
        "accessibility": 0.2581,
        "processing_difficulty": 0.7918,
        "recovery": 0.5558,
        "reserve_2025_t": 3567229.9,
        "byproducts": "silver, copper, tellurium, antimony"
      },
      "geometry": {
        "type": "Point",
        "coordinates": [
          -66.796875,
          5.81993370497452
        ]
      }
    },
    {
      "type": "Feature",
      "properties": {
        "id": "antimony_hydrothermal-30",
        "resource": "antimony_hydrothermal",
        "name": "Antimony",
        "prospect_score": 0.1625,
        "ore_resource_t": 20503387.05,
        "grade": "{\"sb_pct\": 3.0405907613854124}",
        "depth_m": 270.1,
        "accessibility": 0.6589,
        "processing_difficulty": 0.8816,
        "recovery": 0.5144,
        "reserve_2025_t": 1636983.22,
        "byproducts": "gold, silver"
      },
      "geometry": {
        "type": "Point",
        "coordinates": [
          -86.484375,
          -21.759690782324736
        ]
      }
    },
    {
      "type": "Feature",
      "properties": {
        "id": "uranium_system-31",
        "resource": "uranium_system",
        "name": "Uranium",
        "prospect_score": 0.209,
        "ore_resource_t": 21007416.71,
        "grade": "{\"u3o8_pct\": 0.24895257185545103}",
        "depth_m": 137.2,
        "accessibility": 0.8052,
        "processing_difficulty": 0.6292,
        "recovery": 0.6306,
        "reserve_2025_t": 3967802.95,
        "byproducts": "vanadium, molybdenum, rare_earths"
      },
      "geometry": {
        "type": "Point",
        "coordinates": [
          76.640625,
          -13.010330387473235
        ]
      }
    },
    {
      "type": "Feature",
      "properties": {
        "id": "carbonatite_ree_nb-32",
        "resource": "carbonatite_ree_nb",
        "name": "Rare earths / niobium",
        "prospect_score": 0.4698,
        "ore_resource_t": 94626463.07,
        "grade": "{\"treo_pct\": 2.0797361391300555}",
        "depth_m": 94.2,
        "accessibility": 0.7446,
        "processing_difficulty": 0.9342,
        "recovery": 0.4902,
        "reserve_2025_t": 18171094.78,
        "byproducts": "niobium, phosphate, tantalum, uranium, thorium"
      },
      "geometry": {
        "type": "Point",
        "coordinates": [
          110.390625,
          31.375085921498552
        ]
      }
    },
    {
      "type": "Feature",
      "properties": {
        "id": "ionic_clay_hree-33",
        "resource": "ionic_clay_hree",
        "name": "Heavy rare-earth clay",
        "prospect_score": 0.7126,
        "ore_resource_t": 15454048.43,
        "grade": "{\"treo_pct\": 0.08647201575238324}",
        "depth_m": 124.1,
        "accessibility": 0.8959,
        "processing_difficulty": 0.8899,
        "recovery": 0.5107,
        "reserve_2025_t": 5483317.12,
        "byproducts": "heavy_rare_earths"
      },
      "geometry": {
        "type": "Point",
        "coordinates": [
          55.546875,
          4.061720379305512
        ]
      }
    },
    {
      "type": "Feature",
      "properties": {
        "id": "ionic_clay_hree-34",
        "resource": "ionic_clay_hree",
        "name": "Heavy rare-earth clay",
        "prospect_score": 0.5757,
        "ore_resource_t": 53137138.92,
        "grade": "{\"treo_pct\": 0.11989920282531363}",
        "depth_m": 136.1,
        "accessibility": 0.4442,
        "processing_difficulty": 1.0,
        "recovery": 0.46,
        "reserve_2025_t": 8912265.11,
        "byproducts": "heavy_rare_earths"
      },
      "geometry": {
        "type": "Point",
        "coordinates": [
          85.078125,
          16.115343903838593
        ]
      }
    },
    {
      "type": "Feature",
      "properties": {
        "id": "mineral_sands-35",
        "resource": "mineral_sands",
        "name": "Titanium / zircon mineral sands",
        "prospect_score": 0.2038,
        "ore_resource_t": 475292753.42,
        "grade": "{\"heavy_mineral_pct\": 5.732182431688281}",
        "depth_m": 185.7,
        "accessibility": 0.1364,
        "processing_difficulty": 0.6401,
        "recovery": 0.6255,
        "reserve_2025_t": 41243983.54,
        "byproducts": "titanium, zirconium, hafnium, rare_earths"
      },
      "geometry": {
        "type": "Point",
        "coordinates": [
          -97.734375,
          -4.877315886695607
        ]
      }
    },
    {
      "type": "Feature",
      "properties": {
        "id": "lithium_brine-36",
        "resource": "lithium_brine",
        "name": "Lithium brine",
        "prospect_score": 0.2249,
        "ore_resource_t": 25786561.77,
        "grade": "{\"li_mg_l\": 639.7190314135984}",
        "depth_m": 568.8,
        "accessibility": 0.8836,
        "processing_difficulty": 0.69,
        "recovery": 0.6026,
        "reserve_2025_t": 4866605.85,
        "byproducts": "potassium, boron"
      },
      "geometry": {
        "type": "Point",
        "coordinates": [
          35.85937500000001,
          10.894548877805466
        ]
      }
    },
    {
      "type": "Feature",
      "properties": {
        "id": "lct_pegmatite-37",
        "resource": "lct_pegmatite",
        "name": "Lithium pegmatite",
        "prospect_score": 0.6698,
        "ore_resource_t": 32688096.36,
        "grade": "{\"li2o_pct\": 1.0880290600753488}",
        "depth_m": 242.6,
        "accessibility": 0.4764,
        "processing_difficulty": 0.7045,
        "recovery": 0.5959,
        "reserve_2025_t": 11652439.48,
        "byproducts": "tantalum, cesium, beryllium, tin"
      },
      "geometry": {
        "type": "Point",
        "coordinates": [
          45.0,
          -62.27008629391104
        ]
      }
    },
    {
      "type": "Feature",
      "properties": {
        "id": "metamorphic_graphite-38",
        "resource": "metamorphic_graphite",
        "name": "Natural graphite",
        "prospect_score": 0.1504,
        "ore_resource_t": 25046373.24,
        "grade": "{\"tgc_pct\": 9.279777141679908}",
        "depth_m": 371.1,
        "accessibility": 0.8661,
        "processing_difficulty": 0.6825,
        "recovery": 0.6061,
        "reserve_2025_t": 3807436.51,
        "byproducts": ""
      },
      "geometry": {
        "type": "Point",
        "coordinates": [
          62.1300819602943,
          -53.64949079379846
        ]
      }
    },
    {
      "type": "Feature",
      "properties": {
        "id": "phosphorite-39",
        "resource": "phosphorite",
        "name": "Phosphate",
        "prospect_score": 0.4184,
        "ore_resource_t": 367116819.73,
        "grade": "{\"p2o5_pct\": 24.7903804152813}",
        "depth_m": 221.5,
        "accessibility": 0.1869,
        "processing_difficulty": 0.6266,
        "recovery": 0.6318,
        "reserve_2025_t": 68347327.73,
        "byproducts": "uranium, rare_earths, fluorine"
      },
      "geometry": {
        "type": "Point",
        "coordinates": [
          -111.796875,
          -36.616985920064316
        ]
      }
    },
    {
      "type": "Feature",
      "properties": {
        "id": "potash_evaporite-40",
        "resource": "potash_evaporite",
        "name": "Potash",
        "prospect_score": 0.1719,
        "ore_resource_t": 717028779.55,
        "grade": "{\"k2o_pct\": 23.644657921707513}",
        "depth_m": 999.2,
        "accessibility": 0.7769,
        "processing_difficulty": 0.6267,
        "recovery": 0.6317,
        "reserve_2025_t": 118924593.51,
        "byproducts": "magnesium_salts"
      },
      "geometry": {
        "type": "Point",
        "coordinates": [
          24.609375000000007,
          23.928671321550674
        ]
      }
    },
    {
      "type": "Feature",
      "properties": {
        "id": "fluorspar_hydrothermal-41",
        "resource": "fluorspar_hydrothermal",
        "name": "Fluorspar",
        "prospect_score": 0.1782,
        "ore_resource_t": 49926615.99,
        "grade": "{\"caf2_pct\": 44.03864242551848}",
        "depth_m": 325.4,
        "accessibility": 0.6927,
        "processing_difficulty": 0.6638,
        "recovery": 0.6147,
        "reserve_2025_t": 7146413.93,
        "byproducts": "barite, lead, zinc, rare_earths"
      },
      "geometry": {
        "type": "Point",
        "coordinates": [
          -100.546875,
          7.605248830323058
        ]
      }
    },
    {
      "type": "Feature",
      "properties": {
        "id": "high_purity_quartz-42",
        "resource": "high_purity_quartz",
        "name": "High-purity quartz",
        "prospect_score": 0.1907,
        "ore_resource_t": 1760695.94,
        "grade": "{\"impurity_ppm\": 49.47127441771972}",
        "depth_m": 70.5,
        "accessibility": 0.3506,
        "processing_difficulty": 1.0,
        "recovery": 0.46,
        "reserve_2025_t": 78891.45,
        "byproducts": ""
      },
      "geometry": {
        "type": "Point",
        "coordinates": [
          5.262186721629556,
          -68.11956759223156
        ]
      }
    }
  ]
}
