{
  "type": "FeatureCollection",
  "name": "geological-resources-v2",
  "schema_version": "2.0",
  "features": [
    {
      "type": "Feature",
      "properties": {
        "id": "coal_basin-0",
        "resource": "coal_basin",
        "name": "Coal basin",
        "prospect_score": 0.2988,
        "ore_resource_t": 909692000.26,
        "grade": "{\"coal_quality\": 0.6191400210597411}",
        "depth_m": 263.2,
        "accessibility": 0.8745,
        "processing_difficulty": 0.2327,
        "recovery": 0.8129,
        "reserve_2025_t": 428509770.3,
        "byproducts": "germanium, coalbed_methane"
      },
      "geometry": {
        "type": "Point",
        "coordinates": [
          40.07812500000001,
          3.7698989651003165
        ]
      }
    },
    {
      "type": "Feature",
      "properties": {
        "id": "petroleum_system-1",
        "resource": "petroleum_system",
        "name": "Oil & gas",
        "prospect_score": 0.2493,
        "ore_resource_t": 865563730.29,
        "grade": "{\"boe_per_t\": 0.0967277913365348}",
        "depth_m": 161.4,
        "accessibility": 0.6044,
        "processing_difficulty": 0.5262,
        "recovery": 0.6779,
        "reserve_2025_t": 183954178.96,
        "byproducts": "helium, sulfur"
      },
      "geometry": {
        "type": "Point",
        "coordinates": [
          -78.046875,
          -10.323160652534249
        ]
      }
    },
    {
      "type": "Feature",
      "properties": {
        "id": "helium_gas-2",
        "resource": "helium_gas",
        "name": "Helium-bearing gas",
        "prospect_score": 0.3512,
        "ore_resource_t": 15675747.74,
        "grade": "{\"helium_vol_pct\": 0.9660493828018512}",
        "depth_m": 144.0,
        "accessibility": 0.8781,
        "processing_difficulty": 0.8161,
        "recovery": 0.5446,
        "reserve_2025_t": 3193559.99,
        "byproducts": "natural_gas"
      },
      "geometry": {
        "type": "Point",
        "coordinates": [
          37.265625,
          -1.6789965538988851
        ]
      }
    },
    {
      "type": "Feature",
      "properties": {
        "id": "helium_gas-3",
        "resource": "helium_gas",
        "name": "Helium-bearing gas",
        "prospect_score": 0.2335,
        "ore_resource_t": 159462674.69,
        "grade": "{\"helium_vol_pct\": 0.6100885970204197}",
        "depth_m": 230.0,
        "accessibility": 0.8742,
        "processing_difficulty": 0.6793,
        "recovery": 0.6075,
        "reserve_2025_t": 31189197.84,
        "byproducts": "natural_gas"
      },
      "geometry": {
        "type": "Point",
        "coordinates": [
          6.328124999999997,
          31.484449023714966
        ]
      }
    },
    {
      "type": "Feature",
      "properties": {
        "id": "bif_iron-4",
        "resource": "bif_iron",
        "name": "Banded iron",
        "prospect_score": 0.345,
        "ore_resource_t": 903570241.88,
        "grade": "{\"fe_pct\": 37.59120970937419}",
        "depth_m": 143.8,
        "accessibility": 0.8858,
        "processing_difficulty": 0.3292,
        "recovery": 0.7686,
        "reserve_2025_t": 407003600.48,
        "byproducts": ""
      },
      "geometry": {
        "type": "Point",
        "coordinates": [
          -87.890625,
          -0.702648599448483
        ]
      }
    },
    {
      "type": "Feature",
      "properties": {
        "id": "bif_iron-5",
        "resource": "bif_iron",
        "name": "Banded iron",
        "prospect_score": 0.4081,
        "ore_resource_t": 769569947.99,
        "grade": "{\"fe_pct\": 35.66846092752519}",
        "depth_m": 172.6,
        "accessibility": 0.53,
        "processing_difficulty": 0.5503,
        "recovery": 0.6669,
        "reserve_2025_t": 218893292.32,
        "byproducts": ""
      },
      "geometry": {
        "type": "Point",
        "coordinates": [
          -68.203125,
          -40.779018911629535
        ]
      }
    },
    {
      "type": "Feature",
      "properties": {
        "id": "bif_iron-6",
        "resource": "bif_iron",
        "name": "Banded iron",
        "prospect_score": 0.2915,
        "ore_resource_t": 859481590.43,
        "grade": "{\"fe_pct\": 42.488076803028264}",
        "depth_m": 150.0,
        "accessibility": 0.8714,
        "processing_difficulty": 0.4153,
        "recovery": 0.7289,
        "reserve_2025_t": 306729124.19,
        "byproducts": ""
      },
      "geometry": {
        "type": "Point",
        "coordinates": [
          58.35937500000001,
          13.868328281258382
        ]
      }
    },
    {
      "type": "Feature",
      "properties": {
        "id": "bif_iron-7",
        "resource": "bif_iron",
        "name": "Banded iron",
        "prospect_score": 0.4293,
        "ore_resource_t": 605870972.04,
        "grade": "{\"fe_pct\": 60.912040661737215}",
        "depth_m": 61.7,
        "accessibility": 0.5069,
        "processing_difficulty": 0.4503,
        "recovery": 0.7129,
        "reserve_2025_t": 209094552.91,
        "byproducts": ""
      },
      "geometry": {
        "type": "Point",
        "coordinates": [
          68.203125,
          33.86649024641027
        ]
      }
    },
    {
      "type": "Feature",
      "properties": {
        "id": "bauxite_laterite-8",
        "resource": "bauxite_laterite",
        "name": "Bauxite",
        "prospect_score": 0.6942,
        "ore_resource_t": 170842734.9,
        "grade": "{\"al2o3_pct\": 44.384501607728055}",
        "depth_m": 190.9,
        "accessibility": 0.8,
        "processing_difficulty": 0.6016,
        "recovery": 0.6433,
        "reserve_2025_t": 83141546.3,
        "byproducts": "gallium, scandium"
      },
      "geometry": {
        "type": "Point",
        "coordinates": [
          -73.828125,
          8.784690136192753
        ]
      }
    },
    {
      "type": "Feature",
      "properties": {
        "id": "bauxite_laterite-9",
        "resource": "bauxite_laterite",
        "name": "Bauxite",
        "prospect_score": 0.5918,
        "ore_resource_t": 1011098962.96,
        "grade": "{\"al2o3_pct\": 32.45739507133825}",
        "depth_m": 55.8,
        "accessibility": 0.7041,
        "processing_difficulty": 0.6829,
        "recovery": 0.6058,
        "reserve_2025_t": 373130320.89,
        "byproducts": "gallium, scandium"
      },
      "geometry": {
        "type": "Point",
        "coordinates": [
          38.67187499999999,
          -13.892518104594151
        ]
      }
    },
    {
      "type": "Feature",
      "properties": {
        "id": "bauxite_laterite-10",
        "resource": "bauxite_laterite",
        "name": "Bauxite",
        "prospect_score": 0.6568,
        "ore_resource_t": 253759927.71,
        "grade": "{\"al2o3_pct\": 38.269861110426696}",
        "depth_m": 311.0,
        "accessibility": 0.8343,
        "processing_difficulty": 0.4515,
        "recovery": 0.7123,
        "reserve_2025_t": 142117566.79,
        "byproducts": "gallium, scandium"
      },
      "geometry": {
        "type": "Point",
        "coordinates": [
          -83.67187500000001,
          2.096534019285695
        ]
      }
    },
    {
      "type": "Feature",
      "properties": {
        "id": "bauxite_laterite-11",
        "resource": "bauxite_laterite",
        "name": "Bauxite",
        "prospect_score": 0.6746,
        "ore_resource_t": 223181137.79,
        "grade": "{\"al2o3_pct\": 33.50105319779731}",
        "depth_m": 225.8,
        "accessibility": 0.9015,
        "processing_difficulty": 0.4553,
        "recovery": 0.7106,
        "reserve_2025_t": 128724936.86,
        "byproducts": "gallium, scandium"
      },
      "geometry": {
        "type": "Point",
        "coordinates": [
          4.921875000000003,
          -0.7005325642988416
        ]
      }
    },
    {
      "type": "Feature",
      "properties": {
        "id": "bauxite_laterite-12",
        "resource": "bauxite_laterite",
        "name": "Bauxite",
        "prospect_score": 0.6669,
        "ore_resource_t": 1202916359.82,
        "grade": "{\"al2o3_pct\": 30.905239011543078}",
        "depth_m": 191.8,
        "accessibility": 0.8418,
        "processing_difficulty": 0.5522,
        "recovery": 0.666,
        "reserve_2025_t": 611704355.67,
        "byproducts": "gallium, scandium"
      },
      "geometry": {
        "type": "Point",
        "coordinates": [
          -51.32812500000001,
          -6.0528444949843205
        ]
      }
    },
    {
      "type": "Feature",
      "properties": {
        "id": "bauxite_laterite-13",
        "resource": "bauxite_laterite",
        "name": "Bauxite",
        "prospect_score": 0.7516,
        "ore_resource_t": 577104460.09,
        "grade": "{\"al2o3_pct\": 44.953986938595115}",
        "depth_m": 179.5,
        "accessibility": 0.9249,
        "processing_difficulty": 0.6584,
        "recovery": 0.6171,
        "reserve_2025_t": 287719440.63,
        "byproducts": "gallium, scandium"
      },
      "geometry": {
        "type": "Point",
        "coordinates": [
          69.609375,
          1.9773079007870582
        ]
      }
    },
    {
      "type": "Feature",
      "properties": {
        "id": "bauxite_laterite-14",
        "resource": "bauxite_laterite",
        "name": "Bauxite",
        "prospect_score": 0.5382,
        "ore_resource_t": 866732421.23,
        "grade": "{\"al2o3_pct\": 30.42059102846}",
        "depth_m": 37.4,
        "accessibility": 0.2116,
        "processing_difficulty": 0.6958,
        "recovery": 0.5999,
        "reserve_2025_t": 198352069.4,
        "byproducts": "gallium, scandium"
      },
      "geometry": {
        "type": "Point",
        "coordinates": [
          -65.390625,
          12.183884672360268
        ]
      }
    },
    {
      "type": "Feature",
      "properties": {
        "id": "bauxite_laterite-15",
        "resource": "bauxite_laterite",
        "name": "Bauxite",
        "prospect_score": 0.3799,
        "ore_resource_t": 232411572.25,
        "grade": "{\"al2o3_pct\": 41.59924730248509}",
        "depth_m": 215.0,
        "accessibility": 0.22,
        "processing_difficulty": 0.6797,
        "recovery": 0.6073,
        "reserve_2025_t": 35889929.79,
        "byproducts": "gallium, scandium"
      },
      "geometry": {
        "type": "Point",
        "coordinates": [
          33.046875,
          13.66251184865716
        ]
      }
    },
    {
      "type": "Feature",
      "properties": {
        "id": "bauxite_laterite-16",
        "resource": "bauxite_laterite",
        "name": "Bauxite",
        "prospect_score": 0.5428,
        "ore_resource_t": 723661149.28,
        "grade": "{\"al2o3_pct\": 44.57254538128119}",
        "depth_m": 99.4,
        "accessibility": 0.7343,
        "processing_difficulty": 0.6466,
        "recovery": 0.6225,
        "reserve_2025_t": 264864480.65,
        "byproducts": "gallium, scandium"
      },
      "geometry": {
        "type": "Point",
        "coordinates": [
          17.578125000000004,
          -14.104306717291257
        ]
      }
    },
    {
      "type": "Feature",
      "properties": {
        "id": "bauxite_laterite-17",
        "resource": "bauxite_laterite",
        "name": "Bauxite",
        "prospect_score": 0.6945,
        "ore_resource_t": 155540818.59,
        "grade": "{\"al2o3_pct\": 91.87999470622856}",
        "depth_m": 68.7,
        "accessibility": 0.4018,
        "processing_difficulty": 0.5334,
        "recovery": 0.6746,
        "reserve_2025_t": 70122371.27,
        "byproducts": "gallium, scandium"
      },
      "geometry": {
        "type": "Point",
        "coordinates": [
          -62.57812500000001,
          0.6241282531006169
        ]
      }
    },
    {
      "type": "Feature",
      "properties": {
        "id": "sedimentary_manganese-18",
        "resource": "sedimentary_manganese",
        "name": "Manganese",
        "prospect_score": 0.4028,
        "ore_resource_t": 41885386.43,
        "grade": "{\"mn_pct\": 43.64072679935523}",
        "depth_m": 362.9,
        "accessibility": 0.6536,
        "processing_difficulty": 0.7707,
        "recovery": 0.5655,
        "reserve_2025_t": 8716465.39,
        "byproducts": "cobalt, nickel"
      },
      "geometry": {
        "type": "Point",
        "coordinates": [
          -79.99374914855768,
          -63.63656979593969
        ]
      }
    },
    {
      "type": "Feature",
      "properties": {
        "id": "vanadium_titanomagnetite-19",
        "resource": "vanadium_titanomagnetite",
        "name": "Titanium\u2013vanadium magnetite",
        "prospect_score": 0.4366,
        "ore_resource_t": 645307160.53,
        "grade": "{\"tio2_pct\": 21.93093842724406}",
        "depth_m": 141.3,
        "accessibility": 0.6904,
        "processing_difficulty": 0.9385,
        "recovery": 0.4883,
        "reserve_2025_t": 107608748.2,
        "byproducts": "iron, vanadium, scandium"
      },
      "geometry": {
        "type": "Point",
        "coordinates": [
          82.265625,
          -11.847469777853199
        ]
      }
    },
    {
      "type": "Feature",
      "properties": {
        "id": "layered_chromite_pgm-20",
        "resource": "layered_chromite_pgm",
        "name": "Chromium / PGM",
        "prospect_score": 0.3738,
        "ore_resource_t": 37432710.67,
        "grade": "{\"cr2o3_pct\": 24.123051806582676}",
        "depth_m": 134.2,
        "accessibility": 0.7069,
        "processing_difficulty": 0.7297,
        "recovery": 0.5843,
        "reserve_2025_t": 8214810.85,
        "byproducts": "platinum_group, nickel, cobalt, gold"
      },
      "geometry": {
        "type": "Point",
        "coordinates": [
          -66.796875,
          -12.31312552095195
        ]
      }
    },
    {
      "type": "Feature",
      "properties": {
        "id": "porphyry_cu_mo-21",
        "resource": "porphyry_cu_mo",
        "name": "Porphyry copper",
        "prospect_score": 0.2953,
        "ore_resource_t": 282401647.58,
        "grade": "{\"cu_pct\": 0.7600514312888549}",
        "depth_m": 35.9,
        "accessibility": 0.5432,
        "processing_difficulty": 0.5348,
        "recovery": 0.674,
        "reserve_2025_t": 63122040.18,
        "byproducts": "molybdenum, rhenium, gold, silver, tellurium"
      },
      "geometry": {
        "type": "Point",
        "coordinates": [
          -72.421875,
          -37.3426954895406
        ]
      }
    },
    {
      "type": "Feature",
      "properties": {
        "id": "sediment_cu_co-22",
        "resource": "sediment_cu_co",
        "name": "Sediment-hosted copper\u2013cobalt",
        "prospect_score": 0.3504,
        "ore_resource_t": 295889523.64,
        "grade": "{\"cu_pct\": 1.721012545311108}",
        "depth_m": 175.4,
        "accessibility": 0.8629,
        "processing_difficulty": 0.515,
        "recovery": 0.6831,
        "reserve_2025_t": 101193668.1,
        "byproducts": "cobalt, silver, germanium"
      },
      "geometry": {
        "type": "Point",
        "coordinates": [
          37.265625,
          2.7991516017223677
        ]
      }
    },
    {
      "type": "Feature",
      "properties": {
        "id": "vms_cu_zn-23",
        "resource": "vms_cu_zn",
        "name": "Volcanogenic Cu\u2013Zn",
        "prospect_score": 0.1448,
        "ore_resource_t": 29624049.15,
        "grade": "{\"combined_base_pct\": 5.228408774920196}",
        "depth_m": 135.5,
        "accessibility": 0.6409,
        "processing_difficulty": 0.9243,
        "recovery": 0.4948,
        "reserve_2025_t": 1961919.17,
        "byproducts": "gold, silver, indium, germanium"
      },
      "geometry": {
        "type": "Point",
        "coordinates": [
          -75.234375,
          -0.6799075481698579
        ]
      }
    },
    {
      "type": "Feature",
      "properties": {
        "id": "sedex_zn_pb-24",
        "resource": "sedex_zn_pb",
        "name": "Sedimentary Zn\u2013Pb",
        "prospect_score": 0.4698,
        "ore_resource_t": 82447795.95,
        "grade": "{\"zn_pb_pct\": 8.311716845711471}",
        "depth_m": 331.7,
        "accessibility": 0.8478,
        "processing_difficulty": 0.6187,
        "recovery": 0.6354,
        "reserve_2025_t": 29739942.0,
        "byproducts": "silver, germanium, cadmium"
      },
      "geometry": {
        "type": "Point",
        "coordinates": [
          -73.828125,
          -8.784690136192753
        ]
      }
    },
    {
      "type": "Feature",
      "properties": {
        "id": "mvt_zn_pb-25",
        "resource": "mvt_zn_pb",
        "name": "Carbonate Zn\u2013Pb",
        "prospect_score": 0.2198,
        "ore_resource_t": 139169172.45,
        "grade": "{\"zn_pb_pct\": 5.545866256452959}",
        "depth_m": 205.1,
        "accessibility": 0.7596,
        "processing_difficulty": 0.5102,
        "recovery": 0.6853,
        "reserve_2025_t": 32586101.38,
        "byproducts": "germanium, gallium, cadmium"
      },
      "geometry": {
        "type": "Point",
        "coordinates": [
          59.765625,
          37.3783326303021
        ]
      }
    },
    {
      "type": "Feature",
      "properties": {
        "id": "magmatic_ni_cu-26",
        "resource": "magmatic_ni_cu",
        "name": "Magmatic nickel\u2013copper",
        "prospect_score": 0.2128,
        "ore_resource_t": 59344872.4,
        "grade": "{\"ni_pct\": 1.3228132868174212}",
        "depth_m": 230.1,
        "accessibility": 0.5807,
        "processing_difficulty": 0.77,
        "recovery": 0.5658,
        "reserve_2025_t": 6631306.71,
        "byproducts": "copper, cobalt, platinum_group"
      },
      "geometry": {
        "type": "Point",
        "coordinates": [
          69.60937499999999,
          -11.22375311156308
        ]
      }
    },
    {
      "type": "Feature",
      "properties": {
        "id": "nickel_laterite-27",
        "resource": "nickel_laterite",
        "name": "Nickel laterite",
        "prospect_score": 0.2331,
        "ore_resource_t": 98462761.32,
        "grade": "{\"ni_pct\": 1.1591683704463722}",
        "depth_m": 67.4,
        "accessibility": 0.8891,
        "processing_difficulty": 1.0,
        "recovery": 0.46,
        "reserve_2025_t": 9676718.15,
        "byproducts": "cobalt, scandium"
      },
      "geometry": {
        "type": "Point",
        "coordinates": [
          11.953124999999998,
          4.815663213420071
        ]
      }
    },
    {
      "type": "Feature",
      "properties": {
        "id": "granite_sn_w-28",
        "resource": "granite_sn_w",
        "name": "Tin / tungsten granite",
        "prospect_score": 0.4049,
        "ore_resource_t": 100951347.99,
        "grade": "{\"sn_w_pct\": 0.6979327384098936}",
        "depth_m": 78.0,
        "accessibility": 0.5307,
        "processing_difficulty": 0.7781,
        "recovery": 0.5621,
        "reserve_2025_t": 18602943.66,
        "byproducts": "molybdenum, bismuth, lithium"
      },
      "geometry": {
        "type": "Point",
        "coordinates": [
          -58.35937500000001,
          13.868328281258382
        ]
      }
    },
    {
      "type": "Feature",
      "properties": {
        "id": "hydrothermal_gold-29",
        "resource": "hydrothermal_gold",
        "name": "Gold",
        "prospect_score": 0.3938,
        "ore_resource_t": 27071898.03,
        "grade": "{\"au_g_t\": 2.5022571501335418}",
        "depth_m": 85.9,
        "accessibility": 0.2581,
        "processing_difficulty": 0.7918,
        "recovery": 0.5558,
        "reserve_2025_t": 3567229.9,
        "byproducts": "silver, copper, tellurium, antimony"
      },
      "geometry": {
        "type": "Point",
        "coordinates": [
          -66.796875,
          5.81993370497452
        ]
      }
    },
    {
      "type": "Feature",
      "properties": {
        "id": "antimony_hydrothermal-30",
        "resource": "antimony_hydrothermal",
        "name": "Antimony",
        "prospect_score": 0.1625,
        "ore_resource_t": 20503387.05,
        "grade": "{\"sb_pct\": 3.0405907613854124}",
        "depth_m": 270.1,
        "accessibility": 0.657,
        "processing_difficulty": 0.8829,
        "recovery": 0.5139,
        "reserve_2025_t": 1628200.4,
        "byproducts": "gold, silver"
      },
      "geometry": {
        "type": "Point",
        "coordinates": [
          -86.484375,
          -21.759690782324736
        ]
      }
    },
    {
      "type": "Feature",
      "properties": {
        "id": "uranium_system-31",
        "resource": "uranium_system",
        "name": "Uranium",
        "prospect_score": 0.1957,
        "ore_resource_t": 20786489.17,
        "grade": "{\"u3o8_pct\": 0.2482888755791031}",
        "depth_m": 117.6,
        "accessibility": 0.9176,
        "processing_difficulty": 0.6137,
        "recovery": 0.6377,
        "reserve_2025_t": 4348302.44,
        "byproducts": "vanadium, molybdenum, rare_earths"
      },
      "geometry": {
        "type": "Point",
        "coordinates": [
          16.171874999999993,
          43.14148990041424
        ]
      }
    },
    {
      "type": "Feature",
      "properties": {
        "id": "carbonatite_ree_nb-32",
        "resource": "carbonatite_ree_nb",
        "name": "Rare earths / niobium",
        "prospect_score": 0.4376,
        "ore_resource_t": 92220980.99,
        "grade": "{\"treo_pct\": 2.066258075463484}",
        "depth_m": 94.2,
        "accessibility": 0.7386,
        "processing_difficulty": 0.934,
        "recovery": 0.4904,
        "reserve_2025_t": 16263544.43,
        "byproducts": "niobium, phosphate, tantalum, uranium, thorium"
      },
      "geometry": {
        "type": "Point",
        "coordinates": [
          110.390625,
          28.64766751361418
        ]
      }
    },
    {
      "type": "Feature",
      "properties": {
        "id": "ionic_clay_hree-33",
        "resource": "ionic_clay_hree",
        "name": "Heavy rare-earth clay",
        "prospect_score": 0.7512,
        "ore_resource_t": 15939604.85,
        "grade": "{\"treo_pct\": 0.08715012044274209}",
        "depth_m": 101.4,
        "accessibility": 0.9396,
        "processing_difficulty": 0.8533,
        "recovery": 0.5275,
        "reserve_2025_t": 6314861.44,
        "byproducts": "heavy_rare_earths"
      },
      "geometry": {
        "type": "Point",
        "coordinates": [
          73.828125,
          2.025979114457455
        ]
      }
    },
    {
      "type": "Feature",
      "properties": {
        "id": "ionic_clay_hree-34",
        "resource": "ionic_clay_hree",
        "name": "Heavy rare-earth clay",
        "prospect_score": 0.5817,
        "ore_resource_t": 53393593.48,
        "grade": "{\"treo_pct\": 0.12004505336639724}",
        "depth_m": 116.9,
        "accessibility": 0.6995,
        "processing_difficulty": 0.96,
        "recovery": 0.4784,
        "reserve_2025_t": 12121857.97,
        "byproducts": "heavy_rare_earths"
      },
      "geometry": {
        "type": "Point",
        "coordinates": [
          117.42187499999999,
          13.167790506008155
        ]
      }
    },
    {
      "type": "Feature",
      "properties": {
        "id": "mineral_sands-35",
        "resource": "mineral_sands",
        "name": "Titanium / zircon mineral sands",
        "prospect_score": 0.1706,
        "ore_resource_t": 462812637.09,
        "grade": "{\"heavy_mineral_pct\": 5.693798816128539}",
        "depth_m": 117.0,
        "accessibility": 0.6955,
        "processing_difficulty": 0.6497,
        "recovery": 0.6211,
        "reserve_2025_t": 66868206.59,
        "byproducts": "titanium, zirconium, hafnium, rare_earths"
      },
      "geometry": {
        "type": "Point",
        "coordinates": [
          -100.546875,
          -28.417617044281506
        ]
      }
    },
    {
      "type": "Feature",
      "properties": {
        "id": "lithium_brine-36",
        "resource": "lithium_brine",
        "name": "Lithium brine",
        "prospect_score": 0.1448,
        "ore_resource_t": 24184963.01,
        "grade": "{\"li_mg_l\": 629.4447968855156}",
        "depth_m": 312.9,
        "accessibility": 0.1724,
        "processing_difficulty": 0.8279,
        "recovery": 0.5392,
        "reserve_2025_t": 1135777.77,
        "byproducts": "potassium, boron"
      },
      "geometry": {
        "type": "Point",
        "coordinates": [
          17.578125000000007,
          23.588308571062907
        ]
      }
    },
    {
      "type": "Feature",
      "properties": {
        "id": "lct_pegmatite-37",
        "resource": "lct_pegmatite",
        "name": "Lithium pegmatite",
        "prospect_score": 0.6698,
        "ore_resource_t": 32688096.36,
        "grade": "{\"li2o_pct\": 1.0880290600753488}",
        "depth_m": 242.6,
        "accessibility": 0.4913,
        "processing_difficulty": 0.6944,
        "recovery": 0.6006,
        "reserve_2025_t": 11926882.8,
        "byproducts": "tantalum, cesium, beryllium, tin"
      },
      "geometry": {
        "type": "Point",
        "coordinates": [
          45.0,
          -62.27008629391104
        ]
      }
    },
    {
      "type": "Feature",
      "properties": {
        "id": "metamorphic_graphite-38",
        "resource": "metamorphic_graphite",
        "name": "Natural graphite",
        "prospect_score": 0.1504,
        "ore_resource_t": 25046373.24,
        "grade": "{\"tgc_pct\": 9.279777141679908}",
        "depth_m": 371.1,
        "accessibility": 0.8268,
        "processing_difficulty": 0.7093,
        "recovery": 0.5937,
        "reserve_2025_t": 3448605.37,
        "byproducts": ""
      },
      "geometry": {
        "type": "Point",
        "coordinates": [
          62.1300819602943,
          -53.64949079379846
        ]
      }
    },
    {
      "type": "Feature",
      "properties": {
        "id": "phosphorite-39",
        "resource": "phosphorite",
        "name": "Phosphate",
        "prospect_score": 0.4325,
        "ore_resource_t": 371277557.81,
        "grade": "{\"p2o5_pct\": 24.86102505743422}",
        "depth_m": 248.2,
        "accessibility": 0.0,
        "processing_difficulty": 0.6287,
        "recovery": 0.6308,
        "reserve_2025_t": 59289440.05,
        "byproducts": "uranium, rare_earths, fluorine"
      },
      "geometry": {
        "type": "Point",
        "coordinates": [
          -114.60937499999999,
          -41.576971842112926
        ]
      }
    },
    {
      "type": "Feature",
      "properties": {
        "id": "potash_evaporite-40",
        "resource": "potash_evaporite",
        "name": "Potash",
        "prospect_score": 0.454,
        "ore_resource_t": 898598118.48,
        "grade": "{\"k2o_pct\": 25.03141133485777}",
        "depth_m": 1882.1,
        "accessibility": 0.0051,
        "processing_difficulty": 0.8561,
        "recovery": 0.5262,
        "reserve_2025_t": 93718845.86,
        "byproducts": "magnesium_salts"
      },
      "geometry": {
        "type": "Point",
        "coordinates": [
          44.296875,
          26.15318524490161
        ]
      }
    },
    {
      "type": "Feature",
      "properties": {
        "id": "fluorspar_hydrothermal-41",
        "resource": "fluorspar_hydrothermal",
        "name": "Fluorspar",
        "prospect_score": 0.1832,
        "ore_resource_t": 50124113.68,
        "grade": "{\"caf2_pct\": 44.082564628057376}",
        "depth_m": 322.3,
        "accessibility": 0.1564,
        "processing_difficulty": 0.7408,
        "recovery": 0.5792,
        "reserve_2025_t": 3276558.34,
        "byproducts": "barite, lead, zinc, rare_earths"
      },
      "geometry": {
        "type": "Point",
        "coordinates": [
          -101.953125,
          6.191992124823371
        ]
      }
    },
    {
      "type": "Feature",
      "properties": {
        "id": "high_purity_quartz-42",
        "resource": "high_purity_quartz",
        "name": "High-purity quartz",
        "prospect_score": 0.1907,
        "ore_resource_t": 1760695.94,
        "grade": "{\"impurity_ppm\": 49.47127441771972}",
        "depth_m": 70.5,
        "accessibility": 0.3654,
        "processing_difficulty": 1.0,
        "recovery": 0.46,
        "reserve_2025_t": 80384.28,
        "byproducts": ""
      },
      "geometry": {
        "type": "Point",
        "coordinates": [
          5.262186721629556,
          -68.11956759223156
        ]
      }
    }
  ]
}
